{
    "links": {
        "self": "http://www.neowsapp.com/rest/v1/neo/3756795?api_key=iIulBulltgU6a56xZRHN4H3l9WmuAYTsLGpBGhQ2"
    },
    "id": "3756795",
    "neo_reference_id": "3756795",
    "name": "(2016 PV)",
    "designation": "2016 PV",
    "nasa_jpl_url": "http://ssd.jpl.nasa.gov/sbdb.cgi?sstr=3756795",
    "absolute_magnitude_h": 23.2,
    "estimated_diameter": {
        "kilometers": {
            "estimated_diameter_min": 0.0608912622,
            "estimated_diameter_max": 0.1361570015
        },
        "meters": {
            "estimated_diameter_min": 60.8912622106,
            "estimated_diameter_max": 136.1570015386
        },
        "miles": {
            "estimated_diameter_min": 0.0378360645,
            "estimated_diameter_max": 0.0846040122
        },
        "feet": {
            "estimated_diameter_min": 199.7744887109,
            "estimated_diameter_max": 446.7093369279
        }
    },
    "is_potentially_hazardous_asteroid": false,
    "close_approach_data": [
        {
            "close_approach_date": "2016-07-11",
            "close_approach_date_full": "2016-Jul-11 18:04",
            "epoch_date_close_approach": 1468260240000,
            "relative_velocity": {
                "kilometers_per_second": "5.6990728198",
                "kilometers_per_hour": "20516.6621513175",
                "miles_per_hour": "12748.255990634"
            },
            "miss_distance": {
                "astronomical": "0.0670017061",
                "lunar": "26.0636636729",
                "kilometers": "10023312.518926007",
                "miles": "6228197.5939006166"
            },
            "orbiting_body": "Earth"
        }
    ],
    "orbital_data": {
        "orbit_id": "10",
        "orbit_determination_date": "2017-04-06 08:24:45",
        "first_observation_date": "2016-08-03",
        "last_observation_date": "2016-08-26",
        "data_arc_in_days": 23,
        "observations_used": 45,
        "orbit_uncertainty": "7",
        "minimum_orbit_intersection": ".0650816",
        "jupiter_tisserand_invariant": "3.776",
        "epoch_osculation": "2459000.5",
        "eccentricity": ".4443769453188867",
        "semi_major_axis": "1.937424355493448",
        "inclination": "4.459581456141461",
        "ascending_node_longitude": "308.7082668890205",
        "orbital_period": "984.9984777864953",
        "perihelion_distance": "1.076477638612857",
        "perihelion_argument": "340.1419208230251",
        "aphelion_distance": "2.79837107237404",
        "perihelion_time": "2458564.655978051359",
        "mean_anomaly": "159.2934927717936",
        "mean_motion": ".3654827983176156",
        "equinox": "J2000",
        "orbit_class": {
            "orbit_class_type": "AMO",
            "orbit_class_description": "Near-Earth asteroid orbits similar to that of 1221 Amor",
            "orbit_class_range": "1.017 AU < q (perihelion) < 1.3 AU"
        }
    },
    "is_sentry_object": false
}